{
    "links": {
        "self": "http://www.neowsapp.com/rest/v1/neo/3755504?api_key=iIulBulltgU6a56xZRHN4H3l9WmuAYTsLGpBGhQ2"
    },
    "id": "3755504",
    "neo_reference_id": "3755504",
    "name": "(2016 NF39)",
    "designation": "2016 NF39",
    "nasa_jpl_url": "http://ssd.jpl.nasa.gov/sbdb.cgi?sstr=3755504",
    "absolute_magnitude_h": 21.9,
    "estimated_diameter": {
        "kilometers": {
            "estimated_diameter_min": 0.1108038821,
            "estimated_diameter_max": 0.2477650126
        },
        "meters": {
            "estimated_diameter_min": 110.8038821264,
            "estimated_diameter_max": 247.7650126055
        },
        "miles": {
            "estimated_diameter_min": 0.068850319,
            "estimated_diameter_max": 0.1539539936
        },
        "feet": {
            "estimated_diameter_min": 363.5298086356,
            "estimated_diameter_max": 812.8773639568
        }
    },
    "is_potentially_hazardous_asteroid": false,
    "close_approach_data": [
        {
            "close_approach_date": "1998-07-31",
            "close_approach_date_full": "1998-Jul-31 07:06",
            "epoch_date_close_approach": 901868760000,
            "relative_velocity": {
                "kilometers_per_second": "12.9649415514",
                "kilometers_per_hour": "46673.7895849046",
                "miles_per_hour": "29001.2777562426"
            },
            "miss_distance": {
                "astronomical": "0.4984779284",
                "lunar": "193.9079141476",
                "kilometers": "74571236.330652508",
                "miles": "46336417.6076322904"
            },
            "orbiting_body": "Earth"
        },
        {
            "close_approach_date": "2016-07-08",
            "close_approach_date_full": "2016-Jul-08 13:25",
            "epoch_date_close_approach": 1467984300000,
            "relative_velocity": {
                "kilometers_per_second": "7.0479122672",
                "kilometers_per_hour": "25372.4841620847",
                "miles_per_hour": "15765.474950602"
            },
            "miss_distance": {
                "astronomical": "0.285929894",
                "lunar": "111.226728766",
                "kilometers": "42774503.11172578",
                "miles": "26578843.756264564"
            },
            "orbiting_body": "Earth"
        },
        {
            "close_approach_date": "2041-07-19",
            "close_approach_date_full": "2041-Jul-19 05:13",
            "epoch_date_close_approach": 2257823580000,
            "relative_velocity": {
                "kilometers_per_second": "6.2413048422",
                "kilometers_per_hour": "22468.6974319251",
                "miles_per_hour": "13961.1748015204"
            },
            "miss_distance": {
                "astronomical": "0.2285879471",
                "lunar": "88.9207114219",
                "kilometers": "34196269.993832677",
                "miles": "21248576.8645658626"
            },
            "orbiting_body": "Earth"
        },
        {
            "close_approach_date": "2059-07-04",
            "close_approach_date_full": "2059-Jul-04 11:01",
            "epoch_date_close_approach": 2824542060000,
            "relative_velocity": {
                "kilometers_per_second": "11.0205584715",
                "kilometers_per_hour": "39674.0104975746",
                "miles_per_hour": "24651.8872450068"
            },
            "miss_distance": {
                "astronomical": "0.4615779381",
                "lunar": "179.5538179209",
                "kilometers": "69051076.378751847",
                "miles": "42906349.2679036086"
            },
            "orbiting_body": "Earth"
        }
    ],
    "orbital_data": {
        "orbit_id": "8",
        "orbit_determination_date": "2017-04-06 08:24:56",
        "first_observation_date": "2016-07-13",
        "last_observation_date": "2016-08-31",
        "data_arc_in_days": 49,
        "observations_used": 44,
        "orbit_uncertainty": "6",
        "minimum_orbit_intersection": ".175893",
        "jupiter_tisserand_invariant": "3.387",
        "epoch_osculation": "2459000.5",
        "eccentricity": ".4910001040024413",
        "semi_major_axis": "2.341749906023761",
        "inclination": "4.919103955645934",
        "ascending_node_longitude": "287.4959058719387",
        "orbital_period": "1308.908216917068",
        "perihelion_distance": "1.191950458618387",
        "perihelion_argument": "4.720334093925362",
        "aphelion_distance": "3.491549353429134",
        "perihelion_time": "2458880.846023605146",
        "mean_anomaly": "32.90943623503644",
        "mean_motion": ".275038383400117",
        "equinox": "J2000",
        "orbit_class": {
            "orbit_class_type": "AMO",
            "orbit_class_description": "Near-Earth asteroid orbits similar to that of 1221 Amor",
            "orbit_class_range": "1.017 AU < q (perihelion) < 1.3 AU"
        }
    },
    "is_sentry_object": false
}